{
  "type": "FeatureCollection",
  "features": [
    {
      "type": "Feature",
      "properties": {
        "norad_id": 66934,
        "name": "STARLINK-36153",
        "group": "last-30-days",
        "lat": 21.299920536207864,
        "lon": 33.68036401998882,
        "alt_km": 327.63872632603307,
        "timestamp": "2025-12-19T10:49:59.924553+00:00",
        "meta_object_name": "STARLINK-36153",
        "meta_object_id": "2025-286K",
        "meta_epoch": "2025-12-18T22:00:00.999936",
        "meta_mean_motion": 15.81665953,
        "meta_eccentricity": 7.803e-05,
        "meta_inclination": 53.1562,
        "meta_ra_of_asc_node": 19.3626,
        "meta_arg_of_pericenter": 84.8963,
        "meta_mean_anomaly": 137.2856,
        "meta_ephemeris_type": 0,
        "meta_classification_type": "U",
        "meta_norad_cat_id": 66934,
        "meta_element_set_no": 999,
        "meta_rev_at_epoch": 298,
        "meta_bstar": -0.0072886141,
        "meta_mean_motion_dot": -0.01311899,
        "meta_mean_motion_ddot": 0,
        "tle_line1": "1 66934U 25286K   25352.91667824 -.01311899  00000+0 -72886-2 0  9997",
        "tle_line2": "2 66934  53.1562  19.3626 0000780  84.8963 137.2856 15.81665953  2982"
      },
      "geometry": {
        "type": "Point",
        "coordinates": [
          33.68036401998882,
          21.299920536207864
        ]
      }
    },
    {
      "type": "Feature",
      "properties": {
        "norad_id": 66935,
        "name": "STARLINK-36127",
        "group": "last-30-days",
        "lat": 23.10598208644451,
        "lon": 35.33539125486312,
        "alt_km": 327.32151322070695,
        "timestamp": "2025-12-19T10:49:59.924565+00:00",
        "meta_object_name": "STARLINK-36127",
        "meta_object_id": "2025-286L",
        "meta_epoch": "2025-12-18T22:00:00.999936",
        "meta_mean_motion": 15.81639241,
        "meta_eccentricity": 0.00010259,
        "meta_inclination": 53.1562,
        "meta_ra_of_asc_node": 19.3577,
        "meta_arg_of_pericenter": 93.1102,
        "meta_mean_anomaly": 131.496,
        "meta_ephemeris_type": 0,
        "meta_classification_type": "U",
        "meta_norad_cat_id": 66935,
        "meta_element_set_no": 999,
        "meta_rev_at_epoch": 298,
        "meta_bstar": -0.0073048656,
        "meta_mean_motion_dot": -0.01313164,
        "meta_mean_motion_ddot": 0,
        "tle_line1": "1 66935U 25286L   25352.91667824 -.01313164  00000+0 -73049-2 0  9997",
        "tle_line2": "2 66935  53.1562  19.3577 0001025  93.1102 131.4960 15.81639241  2982"
      },
      "geometry": {
        "type": "Point",
        "coordinates": [
          35.33539125486312,
          23.10598208644451
        ]
      }
    },
    {
      "type": "Feature",
      "properties": {
        "norad_id": 66936,
        "name": "STARLINK-36160",
        "group": "last-30-days",
        "lat": 24.70261617444617,
        "lon": 36.85030855148345,
        "alt_km": 327.04172425047636,
        "timestamp": "2025-12-19T10:49:59.924575+00:00",
        "meta_object_name": "STARLINK-36160",
        "meta_object_id": "2025-286M",
        "meta_epoch": "2025-12-18T22:00:00.999936",
        "meta_mean_motion": 15.81639485,
        "meta_eccentricity": 8.753e-05,
        "meta_inclination": 53.1562,
        "meta_ra_of_asc_node": 19.3536,
        "meta_arg_of_pericenter": 76.3479,
        "meta_mean_anomaly": 150.3755,
        "meta_ephemeris_type": 0,
        "meta_classification_type": "U",
        "meta_norad_cat_id": 66936,
        "meta_element_set_no": 999,
        "meta_rev_at_epoch": 298,
        "meta_bstar": -0.0073337595,
        "meta_mean_motion_dot": -0.01317637,
        "meta_mean_motion_ddot": 0,
        "tle_line1": "1 66936U 25286M   25352.91667824 -.01317637  00000+0 -73338-2 0  9998",
        "tle_line2": "2 66936  53.1562  19.3536 0000875  76.3479 150.3755 15.81639485  2982"
      },
      "geometry": {
        "type": "Point",
        "coordinates": [
          36.85030855148345,
          24.70261617444617
        ]
      }
    },
    {
      "type": "Feature",
      "properties": {
        "norad_id": 66937,
        "name": "STARLINK-36165",
        "group": "last-30-days",
        "lat": 26.301564175939365,
        "lon": 38.42184830741705,
        "alt_km": 326.66389139902003,
        "timestamp": "2025-12-19T10:49:59.924585+00:00",
        "meta_object_name": "STARLINK-36165",
        "meta_object_id": "2025-286N",
        "meta_epoch": "2025-12-18T22:00:00.999936",
        "meta_mean_motion": 15.81638457,
        "meta_eccentricity": 0.00010105,
        "meta_inclination": 53.1561,
        "meta_ra_of_asc_node": 19.3487,
        "meta_arg_of_pericenter": 75.8509,
        "meta_mean_anomaly": 153.0209,
        "meta_ephemeris_type": 0,
        "meta_classification_type": "U",
        "meta_norad_cat_id": 66937,
        "meta_element_set_no": 999,
        "meta_rev_at_epoch": 298,
        "meta_bstar": -0.0073756562,
        "meta_mean_motion_dot": -0.01324255,
        "meta_mean_motion_ddot": 0,
        "tle_line1": "1 66937U 25286N   25352.91667824 -.01324255  00000+0 -73757-2 0  9998",
        "tle_line2": "2 66937  53.1561  19.3487 0001010  75.8509 153.0209 15.81638457  2989"
      },
      "geometry": {
        "type": "Point",
        "coordinates": [
          38.42184830741705,
          26.301564175939365
        ]
      }
    },
    {
      "type": "Feature",
      "properties": {
        "norad_id": 66938,
        "name": "STARLINK-36155",
        "group": "last-30-days",
        "lat": 27.88895528874952,
        "lon": 40.044074336284794,
        "alt_km": 326.61676042281215,
        "timestamp": "2025-12-19T10:49:59.924597+00:00",
        "meta_object_name": "STARLINK-36155",
        "meta_object_id": "2025-286P",
        "meta_epoch": "2025-12-18T22:00:00.999936",
        "meta_mean_motion": 15.81637535,
        "meta_eccentricity": 9.237e-05,
        "meta_inclination": 53.1559,
        "meta_ra_of_asc_node": 19.3441,
        "meta_arg_of_pericenter": 86.6096,
        "meta_mean_anomaly": 144.4225,
        "meta_ephemeris_type": 0,
        "meta_classification_type": "U",
        "meta_norad_cat_id": 66938,
        "meta_element_set_no": 999,
        "meta_rev_at_epoch": 298,
        "meta_bstar": -0.0074319982,
        "meta_mean_motion_dot": -0.01332996,
        "meta_mean_motion_ddot": 0,
        "tle_line1": "1 66938U 25286P   25352.91667824 -.01332996  00000+0 -74320-2 0  9997",
        "tle_line2": "2 66938  53.1559  19.3441 0000923  86.6096 144.4225 15.81637535  2988"
      },
      "geometry": {
        "type": "Point",
        "coordinates": [
          40.044074336284794,
          27.88895528874952
        ]
      }
    },
    {
      "type": "Feature",
      "properties": {
        "norad_id": 66939,
        "name": "STARLINK-36154",
        "group": "last-30-days",
        "lat": 31.14669074297139,
        "lon": 43.60138876591055,
        "alt_km": 326.02030417678907,
        "timestamp": "2025-12-19T10:49:59.924607+00:00",
        "meta_object_name": "STARLINK-36154",
        "meta_object_id": "2025-286Q",
        "meta_epoch": "2025-12-18T22:00:00.999936",
        "meta_mean_motion": 15.81616163,
        "meta_eccentricity": 0.00010207,
        "meta_inclination": 53.1557,
        "meta_ra_of_asc_node": 19.3345,
        "meta_arg_of_pericenter": 84.8927,
        "meta_mean_anomaly": 150.6917,
        "meta_ephemeris_type": 0,
        "meta_classification_type": "U",
        "meta_norad_cat_id": 66939,
        "meta_element_set_no": 999,
        "meta_rev_at_epoch": 298,
        "meta_bstar": -0.0075297785,
        "meta_mean_motion_dot": -0.01347182,
        "meta_mean_motion_ddot": 0,
        "tle_line1": "1 66939U 25286Q   25352.91667824 -.01347182  00000+0 -75298-2 0  9996",
        "tle_line2": "2 66939  53.1557  19.3345 0001020  84.8927 150.6917 15.81616163  2983"
      },
      "geometry": {
        "type": "Point",
        "coordinates": [
          43.60138876591055,
          31.14669074297139
        ]
      }
    },
    {
      "type": "Feature",
      "properties": {
        "norad_id": 66940,
        "name": "STARLINK-36121",
        "group": "last-30-days",
        "lat": 32.632443746445844,
        "lon": 45.34466300172817,
        "alt_km": 326.07325583992224,
        "timestamp": "2025-12-19T10:49:59.924617+00:00",
        "meta_object_name": "STARLINK-36121",
        "meta_object_id": "2025-286R",
        "meta_epoch": "2025-12-18T22:00:00.999936",
        "meta_mean_motion": 15.81621323,
        "meta_eccentricity": 7.02e-05,
        "meta_inclination": 53.1555,
        "meta_ra_of_asc_node": 19.3299,
        "meta_arg_of_pericenter": 92.5845,
        "meta_mean_anomaly": 145.0996,
        "meta_ephemeris_type": 0,
        "meta_classification_type": "U",
        "meta_norad_cat_id": 66940,
        "meta_element_set_no": 999,
        "meta_rev_at_epoch": 298,
        "meta_bstar": -0.0075956829,
        "meta_mean_motion_dot": -0.01383859,
        "meta_mean_motion_ddot": 0,
        "tle_line1": "1 66940U 25286R   25352.91667824 -.01383859  00000+0 -75957-2 0  9991",
        "tle_line2": "2 66940  53.1555  19.3299 0000702  92.5845 145.0996 15.81621323  2981"
      },
      "geometry": {
        "type": "Point",
        "coordinates": [
          45.34466300172817,
          32.632443746445844
        ]
      }
    }
  ]
}